ALOS (DAICHI)           
1 28931U 06002A   24054.58637962  .00001950  00000+0  37117-3 0  9998
2 28931  98.0235  10.2430 0002022 110.9023 249.2397 14.65170975964194
